APRIZESAT 2             
1 28366U 04025A   24226.81764387  .00001158  00000+0  37543-3 0  9995
2 28366  98.0813  61.5587 0107776 119.7373 241.4591 14.37379436 55022
SAUDICOMSAT 1           
1 28369U 04025D   24227.20985649  .00002621  00000+0  62739-3 0  9999
2 28369  98.5412 209.5331 0031515 281.5928  78.1731 14.54141483 66477
SAUDICOMSAT 2           
1 28370U 04025E   24226.95244336  .00001828  00000+0  48628-3 0  9992
2 28370  98.6336 210.2128 0057399 134.0515 226.5425 14.48841335 62718
APRIZESAT 1             
1 28372U 04025G   24226.94387732  .00002065  00000+0  52945-3 0  9992
2 28372  98.5955 209.4816 0045791  40.4988 319.9598 14.50795690 64396
NANOSAT-1               
1 28493U 04049B   24226.90501218  .00005450  00000+0  78360-3 0  9995
2 28493  98.1505 340.9727 0003025 300.7361  59.3551 14.76822734 56089
SAUDICOMSAT 7           
1 31119U 07012C   24226.92182659  .00003509  00000+0  66231-3 0  9990
2 31119  98.2800 180.9381 0058643 142.0948 218.4404 14.64004110923983
SAUDICOMSAT 6           
1 31121U 07012E   24226.79569124  .00003330  00000+0  66957-3 0  9991
2 31121  98.3118 175.4642 0072703 260.3163  98.9819 14.60632218922010
SAUDICOMSAT 5           
1 31124U 07012H   24226.91580753  .00004222  00000+0  76691-3 0  9996
2 31124  98.2506 181.8980 0050850  81.0118 279.6836 14.65882567925004
SAUDICOMSAT 3           
1 31125U 07012J   24226.88023778  .00005159  00000+0  89622-3 0  9990
2 31125  98.2175 182.5939 0041506  19.3268 340.9499 14.68045385926074
SAUDICOMSAT 4           
1 31127U 07012L   24226.57830846  .00003226  00000+0  62757-3 0  9993
2 31127  98.3002 179.1061 0065169 198.6071 161.2747 14.62460958922985
APRIZESAT 4             
1 35684U 09041D   24227.17374621  .00003798  00000+0  48202-3 0  9993
2 35684  98.2326 275.6149 0044475 337.7772  22.1511 14.81642041811814
APRIZESAT 3             
1 35686U 09041F   24226.79367821  .00008005  00000+0  76673-3 0  9995
2 35686  98.1206 342.5834 0068265 123.3915 237.3859 14.91678283815950
AISSAT 1                
1 36797U 10035C   24227.17961691  .00009601  00000+0  95922-3 0  9993
2 36797  98.1796  90.8698 0011636 113.0663 247.1782 14.91660080763946
S-NET D                 
1 43186U 18014G   24226.89853524  .00011353  00000+0  79331-3 0  9994
2 43186  97.5828 127.7379 0011037 160.5682 199.5968 15.05433619357187
S-NET B                 
1 43187U 18014H   24226.96756144  .00012301  00000+0  85907-3 0  9993
2 43187  97.5837 127.7597 0011993 156.1882 203.9902 15.05426875357199
S-NET A                 
1 43188U 18014J   24226.89963356  .00012506  00000+0  87312-3 0  9990
2 43188  97.5841 127.8104 0011803 157.1811 202.9942 15.05434471357186
S-NET C                 
1 43189U 18014K   24226.90317017  .00012363  00000+0  86293-3 0  9998
2 43189  97.5861 127.7734 0013832 151.0254 209.1744 15.05425954355739
SALSAT                  
1 46495U 20068K   24226.39160547  .00015787  00000+0  86466-3 0  9995
2 46495  97.8192 187.1729 0015630 115.1705 245.1149 15.14206603212960
OOV-CUBE (TUBSAT-30)    
1 60240U 24128F   24226.87695971  .00008193  00000+0  73074-3 0  9991
2 60240  61.9989  40.6407 0011267 297.0288  62.9649 14.96607688  5242
